start=new Date('2023-04-03T00:00:00.000Z').valueOf();
sats=[{"EPOCH":"2023-04-02T22:00:00.999936","APOAPSIS":"540.567","PERIAPSIS":"538.990","RA_OF_ASC_NODE":"65.5985","CLASSIFICATION_TYPE":"U","FILE":"3878419","ARG_OF_PERICENTER":"259.2166","COUNTRY_CODE":"US","GP_ID":"229355060","MEAN_ELEMENT_THEORY":"SGP4","MEAN_MOTION_DDOT":"0.0000000000000","MEAN_MOTION_DOT":"-0.00914356","MEAN_MOTION":"15.08829217","SITE":"AFETR","INCLINATION":"42.9979","CENTER_NAME":"EARTH","REF_FRAME":"TEME","LAUNCH_DATE":"2023-02-12","TIME_SYSTEM":"UTC","NORAD_CAT_ID":"55577","MEAN_ANOMALY":"287.1989","OBJECT_NAME":"STARLINK-5752","RCS_SIZE":"LARGE","PERIOD":"95.438","SEMIMAJOR_AXIS":"6917.913","REV_AT_EPOCH":"130","EPHEMERIS_TYPE":"0","OBJECT_ID":"2023-020J","ECCENTRICITY":"0.00011400","TLE_LINE2":"2 55577  42.9979  65.5985 0001140 259.2166 287.1989 15.08829217  1307","TLE_LINE1":"1 55577U 23020J   23092.91667824 -.00914356  00000-0 -61759-1 0  9994","BSTAR":"-0.06175900000000","ELEMENT_SET_NO":"999","OBJECT_TYPE":"PAYLOAD","DECAY_DATE":null},{"RCS_SIZE":"LARGE","OBJECT_NAME":"STARLINK-5713","SEMIMAJOR_AXIS":"6937.216","PERIOD":"95.838","LAUNCH_DATE":"2023-02-12","MEAN_ANOMALY":"186.5320","TIME_SYSTEM":"UTC","NORAD_CAT_ID":"55578","ELEMENT_SET_NO":"999","BSTAR":"0.00282110000000","OBJECT_TYPE":"PAYLOAD","DECAY_DATE":null,"OBJECT_ID":"2023-020K","EPHEMERIS_TYPE":"0","REV_AT_EPOCH":"130","TLE_LINE1":"1 55578U 23020K   23092.91667824  .00038113  00000-0  28211-2 0  9998","ECCENTRICITY":"0.00012400","TLE_LINE2":"2 55578  43.0002  68.4222 0001240 258.6148 186.5320 15.02536227  1308","ARG_OF_PERICENTER":"258.6148","FILE":"3878419","GP_ID":"229355789","COUNTRY_CODE":"US","PERIAPSIS":"558.221","EPOCH":"2023-04-02T22:00:00.999936","APOAPSIS":"559.941","RA_OF_ASC_NODE":"68.4222","CLASSIFICATION_TYPE":"U","INCLINATION":"43.0002","REF_FRAME":"TEME","CENTER_NAME":"EARTH","MEAN_MOTION_DOT":"0.00038113","MEAN_MOTION_DDOT":"0.0000000000000","MEAN_MOTION":"15.02536227","MEAN_ELEMENT_THEORY":"SGP4","SITE":"AFETR"},{"BSTAR":"-0.00124810000000","ELEMENT_SET_NO":"999","DECAY_DATE":null,"OBJECT_TYPE":"PAYLOAD","REV_AT_EPOCH":"762","EPHEMERIS_TYPE":"0","OBJECT_ID":"2023-020L","ECCENTRICITY":"0.00008480","TLE_LINE2":"2 55579  43.0015  70.9649 0000848 328.3859  31.6933 15.04351768  7629","TLE_LINE1":"1 55579U 23020L   23092.42612303 -.00017858  00000-0 -12481-2 0  9994","RCS_SIZE":"LARGE","OBJECT_NAME":"STARLINK-5754","SEMIMAJOR_AXIS":"6931.633","PERIOD":"95.722","LAUNCH_DATE":"2023-02-12","TIME_SYSTEM":"UTC","NORAD_CAT_ID":"55579","MEAN_ANOMALY":"31.6933","INCLINATION":"43.0015","CENTER_NAME":"EARTH","REF_FRAME":"TEME","MEAN_ELEMENT_THEORY":"SGP4","MEAN_MOTION_DDOT":"0.0000000000000","MEAN_MOTION_DOT":"-0.00017858","MEAN_MOTION":"15.04351768","SITE":"AFETR","FILE":"3878126","ARG_OF_PERICENTER":"328.3859","COUNTRY_CODE":"US","GP_ID":"229320573","EPOCH":"2023-04-02T10:13:37.029792","APOAPSIS":"554.086","PERIAPSIS":"552.910","RA_OF_ASC_NODE":"70.9649","CLASSIFICATION_TYPE":"U"},{"FILE":"3878126","ARG_OF_PERICENTER":"271.9336","COUNTRY_CODE":"US","GP_ID":"229320823","EPOCH":"2023-04-02T08:06:01.671840","APOAPSIS":"355.900","PERIAPSIS":"354.148","CLASSIFICATION_TYPE":"U","RA_OF_ASC_NODE":"59.7943","INCLINATION":"43.0010","CENTER_NAME":"EARTH","REF_FRAME":"TEME","MEAN_ELEMENT_THEORY":"SGP4","MEAN_MOTION":"15.71355520","MEAN_MOTION_DDOT":"0.0000000000000","MEAN_MOTION_DOT":"0.00000074","SITE":"AFETR","RCS_SIZE":"LARGE","OBJECT_NAME":"STARLINK-5757","SEMIMAJOR_AXIS":"6733.159","PERIOD":"91.641","LAUNCH_DATE":"2023-02-12","NORAD_CAT_ID":"55580","TIME_SYSTEM":"UTC","MEAN_ANOMALY":"88.1382","BSTAR":"0.00000400810000","ELEMENT_SET_NO":"999","OBJECT_TYPE":"PAYLOAD","DECAY_DATE":null,"REV_AT_EPOCH":"774","EPHEMERIS_TYPE":"0","OBJECT_ID":"2023-020M","TLE_LINE2":"2 55580  43.0010  59.7943 0001301 271.9336  88.1382 15.71355520  7748","ECCENTRICITY":"0.00013010","TLE_LINE1":"1 55580U 23020M   23092.33751935  .00000074  00000-0  40081-5 0  9991"},{"SITE":"AFETR","MEAN_ELEMENT_THEORY":"SGP4","MEAN_MOTION":"15.02520648","MEAN_MOTION_DOT":"0.00034200","MEAN_MOTION_DDOT":"0.0000000000000","CENTER_NAME":"EARTH","REF_FRAME":"TEME","INCLINATION":"43.0001","CLASSIFICATION_TYPE":"U","RA_OF_ASC_NODE":"68.4645","APOAPSIS":"560.182","EPOCH":"2023-04-02T22:00:00.999936","PERIAPSIS":"558.076","COUNTRY_CODE":"US","GP_ID":"229355561","FILE":"3878419","ARG_OF_PERICENTER":"265.9453","TLE_LINE2":"2 55581  43.0001  68.4645 0001518 265.9453 161.1745 15.02520648  1308","ECCENTRICITY":"0.00015180","TLE_LINE1":"1 55581U 23020N   23092.91667824  .00034200  00000-0  25355-2 0  9991","EPHEMERIS_TYPE":"0","REV_AT_EPOCH":"130","OBJECT_ID":"2023-020N","DECAY_DATE":null,"OBJECT_TYPE":"PAYLOAD","BSTAR":"0.00253550000000","ELEMENT_SET_NO":"999","NORAD_CAT_ID":"55581","TIME_SYSTEM":"UTC","MEAN_ANOMALY":"161.1745","LAUNCH_DATE":"2023-02-12","SEMIMAJOR_AXIS":"6937.264","PERIOD":"95.839","OBJECT_NAME":"STARLINK-5753","RCS_SIZE":"LARGE"},{"OBJECT_TYPE":"PAYLOAD","DECAY_DATE":null,"BSTAR":"-0.00000640870000","ELEMENT_SET_NO":"999","ECCENTRICITY":"0.00012450","TLE_LINE2":"2 55582  43.0023  68.1878 0001245 248.8430 111.2296 15.48904094  7562","TLE_LINE1":"1 55582U 23020P   23091.38016876 -.00000689  00000-0 -64087-5 0  9991","REV_AT_EPOCH":"756","EPHEMERIS_TYPE":"0","OBJECT_ID":"2023-020P","PERIOD":"92.969","SEMIMAJOR_AXIS":"6798.068","RCS_SIZE":"LARGE","OBJECT_NAME":"STARLINK-5741","TIME_SYSTEM":"UTC","NORAD_CAT_ID":"55582","MEAN_ANOMALY":"111.2296","LAUNCH_DATE":"2023-02-12","CENTER_NAME":"EARTH","REF_FRAME":"TEME","INCLINATION":"43.0023","SITE":"AFETR","MEAN_ELEMENT_THEORY":"SGP4","MEAN_MOTION_DDOT":"0.0000000000000","MEAN_MOTION_DOT":"-0.00000689","MEAN_MOTION":"15.48904094","COUNTRY_CODE":"US","GP_ID":"229248353","FILE":"3877270","ARG_OF_PERICENTER":"248.8430","RA_OF_ASC_NODE":"68.1878","CLASSIFICATION_TYPE":"U","EPOCH":"2023-04-01T09:07:26.580864","APOAPSIS":"420.779","PERIAPSIS":"419.086"},{"REV_AT_EPOCH":"130","EPHEMERIS_TYPE":"0","OBJECT_ID":"2023-020Q","TLE_LINE2":"2 55583  42.9999  68.3932 0001537 263.4031 193.7238 15.02545774  1303","ECCENTRICITY":"0.00015370","TLE_LINE1":"1 55583U 23020Q   23092.91667824  .00037289  00000-0  27601-2 0  9999","BSTAR":"0.00276010000000","ELEMENT_SET_NO":"999","DECAY_DATE":null,"OBJECT_TYPE":"PAYLOAD","LAUNCH_DATE":"2023-02-12","NORAD_CAT_ID":"55583","TIME_SYSTEM":"UTC","MEAN_ANOMALY":"193.7238","RCS_SIZE":"LARGE","OBJECT_NAME":"STARLINK-5742","SEMIMAJOR_AXIS":"6937.186","PERIOD":"95.837","MEAN_ELEMENT_THEORY":"SGP4","MEAN_MOTION":"15.02545774","MEAN_MOTION_DOT":"0.00037289","MEAN_MOTION_DDOT":"0.0000000000000","SITE":"AFETR","INCLINATION":"42.9999","CENTER_NAME":"EARTH","REF_FRAME":"TEME","EPOCH":"2023-04-02T22:00:00.999936","APOAPSIS":"560.118","PERIAPSIS":"557.985","CLASSIFICATION_TYPE":"U","RA_OF_ASC_NODE":"68.3932","FILE":"3878419","ARG_OF_PERICENTER":"263.4031","COUNTRY_CODE":"US","GP_ID":"229354560"},{"SITE":"AFETR","MEAN_MOTION_DOT":"0.00034151","MEAN_MOTION_DDOT":"0.0000000000000","MEAN_MOTION":"15.02539330","MEAN_ELEMENT_THEORY":"SGP4","REF_FRAME":"TEME","CENTER_NAME":"EARTH","INCLINATION":"43.0003","RA_OF_ASC_NODE":"68.3651","CLASSIFICATION_TYPE":"U","PERIAPSIS":"558.222","EPOCH":"2023-04-02T22:00:00.999936","APOAPSIS":"559.920","GP_ID":"229354810","COUNTRY_CODE":"US","ARG_OF_PERICENTER":"262.5653","FILE":"3878419","TLE_LINE1":"1 55584U 23020R   23092.91667824  .00034151  00000-0  25306-2 0  9995","ECCENTRICITY":"0.00012240","TLE_LINE2":"2 55584  43.0003  68.3651 0001224 262.5653 206.6179 15.02539330  1302","OBJECT_ID":"2023-020R","REV_AT_EPOCH":"130","EPHEMERIS_TYPE":"0","DECAY_DATE":null,"OBJECT_TYPE":"PAYLOAD","ELEMENT_SET_NO":"999","BSTAR":"0.00253060000000","MEAN_ANOMALY":"206.6179","TIME_SYSTEM":"UTC","NORAD_CAT_ID":"55584","LAUNCH_DATE":"2023-02-12","SEMIMAJOR_AXIS":"6937.206","PERIOD":"95.838","OBJECT_NAME":"STARLINK-5736","RCS_SIZE":"LARGE"},{"ECCENTRICITY":"0.00067430","TLE_LINE2":"2 55585  43.0007  64.4469 0006743 289.6943  70.3188 15.46847400  7663","TLE_LINE1":"1 55585U 23020S   23092.02821576 -.00092517  00000-0 -18112-2 0  9993","REV_AT_EPOCH":"766","EPHEMERIS_TYPE":"0","OBJECT_ID":"2023-020S","OBJECT_TYPE":"PAYLOAD","DECAY_DATE":null,"BSTAR":"-0.00181120000000","ELEMENT_SET_NO":"999","TIME_SYSTEM":"UTC","NORAD_CAT_ID":"55585","MEAN_ANOMALY":"70.3188","LAUNCH_DATE":"2023-02-12","SEMIMAJOR_AXIS":"6804.092","PERIOD":"93.093","OBJECT_NAME":"STARLINK-5769","RCS_SIZE":"LARGE","SITE":"AFETR","MEAN_ELEMENT_THEORY":"SGP4","MEAN_MOTION_DOT":"-0.00092517","MEAN_MOTION_DDOT":"0.0000000000000","MEAN_MOTION":"15.46847400","CENTER_NAME":"EARTH","REF_FRAME":"TEME","INCLINATION":"43.0007","RA_OF_ASC_NODE":"64.4469","CLASSIFICATION_TYPE":"U","EPOCH":"2023-04-02T00:40:37.841664","APOAPSIS":"430.545","PERIAPSIS":"421.369","COUNTRY_CODE":"US","GP_ID":"229321575","FILE":"3878126","ARG_OF_PERICENTER":"289.6943"},{"ARG_OF_PERICENTER":"265.2138","FILE":"3878395","GP_ID":"229329219","COUNTRY_CODE":"US","PERIAPSIS":"552.151","APOAPSIS":"554.043","EPOCH":"2023-04-02T10:11:54.924000","RA_OF_ASC_NODE":"70.9570","CLASSIFICATION_TYPE":"U","INCLINATION":"43.0003","REF_FRAME":"TEME","CENTER_NAME":"EARTH","MEAN_MOTION_DDOT":"0.0000000000000","MEAN_MOTION_DOT":"0.00013587","MEAN_MOTION":"15.04482332","MEAN_ELEMENT_THEORY":"SGP4","SITE":"AFETR","OBJECT_NAME":"STARLINK-5767","RCS_SIZE":"LARGE","PERIOD":"95.714","SEMIMAJOR_AXIS":"6931.232","LAUNCH_DATE":"2023-02-12","MEAN_ANOMALY":"94.8549","TIME_SYSTEM":"UTC","NORAD_CAT_ID":"55586","ELEMENT_SET_NO":"999","BSTAR":"0.00096764000000","DECAY_DATE":null,"OBJECT_TYPE":"PAYLOAD","OBJECT_ID":"2023-020T","EPHEMERIS_TYPE":"0","REV_AT_EPOCH":"762","TLE_LINE1":"1 55586U 23020T   23092.42494125  .00013587  00000-0  96764-3 0  9992","ECCENTRICITY":"0.00013650","TLE_LINE2":"2 55586  43.0003  70.9570 0001365 265.2138  94.8549 15.04482332  7627"}];
